0 ARIANE 2 DEB
1 33550U 89006AS  13283.90933106  .00000156  00000-0  48354-1 0   692
2 33550 009.4431 342.0462 6981105 342.1879 002.4626 02.21989536 61163
0 ARIANE 2 DEB
1 33550U 89006AS  13284.81018576  .00000187  00000-0  52743-1 0   701
2 33550 009.4422 341.7752 6981889 342.7307 002.3862 02.21989937 61180
0 ARIANE 2 DEB
1 33550U 89006AS  13292.46742409  .00000121  00000-0  36064-1 0   717
2 33550 009.4308 339.3507 6982229 347.5254 001.7941 02.21996532 61356
